     3.04           N: GNSS NAV DATA    E: GALILEO          RINEX VERSION / TYPE
Spider V7.7.2.9082  BYGEO               20231026 145942 UTC PGM / RUN BY / DATE
    18    18  1929     7                                    LEAP SECONDS
                                                            END OF HEADER
E13 2023 10 26 12 00 00-1.962395617738D-05-2.842170943040D-14 0.000000000000D+00
     8.000000000000D+00-4.262500000000D+01 2.230450046881D-09-1.207766155623D+00
    -1.871958374977D-06 1.891658175737D-04 1.500174403191D-05 5.440609685898D+03
     3.888000000000D+05-7.450580596924D-09-3.889622154604D-01 5.215406417847D-08
     1.000219948890D+00 4.118750000000D+01-1.936518305269D+00-5.070925510116D-09
     7.214586567050D-11 2.580000000000D+02 2.285000000000D+03 0.000000000000D+00
     3.120000000000D+00 0.000000000000D+00 5.820766091347D-09 0.000000000000D+00
     3.895000000000D+05
E08 2023 10 26 12 10 00-1.672660582699D-04-5.798028723802D-12 0.000000000000D+00
     9.000000000000D+00-1.134062500000D+02 3.640508783320D-09 8.545545683364D-01
    -5.278736352921D-06 2.488041063771D-04 4.053115844727D-06 5.440607589722D+03
     3.894000000000D+05 3.725290298462D-08 1.704551880605D+00-3.725290298462D-09
     9.650141538330D-01 2.555625000000D+02 1.047922022364D+00-6.017393505736D-09
    -5.257361768152D-10 5.170000000000D+02 2.285000000000D+03 0.000000000000D+00
     3.120000000000D+00 0.000000000000D+00-3.725290298462D-09-4.190951585770D-09
     3.900550000000D+05
E26 2023 10 26 12 10 00 2.624446060508D-04 1.099920154957D-11 0.000000000000D+00
     9.000000000000D+00-3.518750000000D+01 2.240093222028D-09-1.485366795649D+00
    -1.495704054832D-06 3.006142796949D-04 1.410208642483D-05 5.440611841202D+03
     3.894000000000D+05 1.490116119385D-08-3.880040260622D-01-1.490116119385D-08
     9.935358557049D-01 5.375000000000D+01-2.392469298007D+00-5.149500211639D-09
     8.036048909643D-11 5.170000000000D+02 2.285000000000D+03 0.000000000000D+00
     3.120000000000D+00 0.000000000000D+00-4.889443516731D-09-5.355104804039D-09
     3.900550000000D+05
E33 2023 10 26 12 10 00 1.041160430759D-06 8.384404281969D-13 0.000000000000D+00
     9.000000000000D+00-1.534375000000D+01 2.215092331781D-09-1.953206939709D+00
    -8.028000593185D-07 3.264963161200D-04 1.459009945393D-05 5.440608709335D+03
     3.894000000000D+05 7.450580596924D-09-3.890059581739D-01-1.117587089539D-08
     1.000238014465D+00 4.325000000000D+01-2.657729163419D+00-5.102355390725D-09
     6.035965477436D-11 5.170000000000D+02 2.285000000000D+03 0.000000000000D+00
     3.120000000000D+00 0.000000000000D+00-3.725290298462D-09-4.190951585770D-09
     3.900550000000D+05
E02 2023 10 26 12 10 00 7.315404945984D-05 3.055333763768D-12 0.000000000000D+00
     9.000000000000D+00 1.478750000000D+02 3.241563684142D-09 5.958394414587D-01
     6.988644599915D-06 3.363785799593D-04 5.250796675682D-06 5.440624835968D+03
     3.894000000000D+05-3.911554813385D-08-2.476291171421D+00-1.117587089539D-08
     9.685445145553D-01 2.293750000000D+02 8.405045143867D-03-5.914532078287D-09
     5.393081536909D-10 5.170000000000D+02 2.285000000000D+03 0.000000000000D+00
     3.120000000000D+00 0.000000000000D+00-9.313225746155D-10-1.862645149231D-09
     3.900550000000D+05
E03 2023 10 26 12 10 00-6.833887891844D-05-3.311129148642D-12 0.000000000000D+00
     9.000000000000D+00-1.190625000000D+02 3.731583930744D-09 1.521610550101D+00
    -5.656853318214D-06 3.289177548140D-04 4.429370164871D-06 5.440603240967D+03
     3.894000000000D+05 1.676380634308D-08 1.705565407805D+00 1.676380634308D-08
     9.591239146066D-01 2.434687500000D+02 1.144079756451D+00-6.084896317499D-09
    -6.082396253326D-10 5.170000000000D+02 2.285000000000D+03 0.000000000000D+00
     3.120000000000D+00 0.000000000000D+00 3.492459654808D-09 3.958120942116D-09
     3.900550000000D+05
E30 2023 10 26 12 10 00-6.107761873864D-04-3.079492216784D-11 0.000000000000D+00
     9.000000000000D+00 1.412187500000D+02 3.352639721399D-09-7.379911809806D-01
     6.571412086487D-06 3.253775648773D-04 5.237758159637D-06 5.440622234344D+03
     3.894000000000D+05-2.793967723846D-08-2.476046479354D+00-1.862645149231D-09
     9.659697567920D-01 2.282187500000D+02 5.466349423395D-01-5.947390589833D-09
     5.021637550229D-10 5.170000000000D+02 2.285000000000D+03 0.000000000000D+00
     3.120000000000D+00 0.000000000000D+00 1.862645149231D-09 1.862645149231D-09
     3.900550000000D+05
E07 2023 10 26 12 10 00-8.437945507467D-05-2.074784788419D-12 0.000000000000D+00
     9.000000000000D+00-1.137812500000D+02 3.773728440848D-09 3.939125122658D-01
    -5.198642611504D-06 1.256196992472D-04 3.971159458160D-06 5.440607456207D+03
     3.894000000000D+05 6.519258022308D-08 1.705619951243D+00-1.676380634308D-08
     9.591646554122D-01 2.532500000000D+02 7.138478905157D-01-6.099539784601D-09
    -4.857345081710D-10 5.170000000000D+02 2.285000000000D+03 0.000000000000D+00
     3.120000000000D+00 0.000000000000D+00 5.355104804039D-09 5.820766091347D-09
     3.900550000000D+05
E13 2023 10 26 12 10 00-1.962424721569D-05-4.263256414561D-14 0.000000000000D+00
     9.000000000000D+00-4.603125000000D+01 2.238307539315D-09-1.134665406089D+00
    -2.048909664154D-06 1.887883991003D-04 1.505762338638D-05 5.440608791351D+03
     3.894000000000D+05-9.313225746155D-09-3.889652583300D-01 4.842877388000D-08
     1.000219982537D+00 4.009375000000D+01-1.935234382531D+00-5.072711298787D-09
     7.250301747863D-11 5.170000000000D+02 2.285000000000D+03 0.000000000000D+00
     3.120000000000D+00 0.000000000000D+00 5.820766091347D-09 6.053596735001D-09
     3.900550000000D+05
E08 2023 10 26 12 10 00-1.672650105320D-04-5.798028723802D-12 0.000000000000D+00
     9.000000000000D+00-1.134062500000D+02 3.640508783320D-09 8.545545683364D-01
    -5.278736352921D-06 2.488041063771D-04 4.053115844727D-06 5.440607589722D+03
     3.894000000000D+05 3.725290298462D-08 1.704551880605D+00-3.725290298462D-09
     9.650141538330D-01 2.555625000000D+02 1.047922022364D+00-6.017393505736D-09
    -5.257361768152D-10 2.580000000000D+02 2.285000000000D+03 0.000000000000D+00
     3.120000000000D+00 0.000000000000D+00-3.725290298462D-09 0.000000000000D+00
     3.901000000000D+05
E30 2023 10 26 12 10 00-6.107757217251D-04-3.078071131313D-11 0.000000000000D+00
     9.000000000000D+00 1.412187500000D+02 3.352639721399D-09-7.379911809806D-01
     6.571412086487D-06 3.253775648773D-04 5.237758159637D-06 5.440622234344D+03
     3.894000000000D+05-2.793967723846D-08-2.476046479354D+00-1.862645149231D-09
     9.659697567920D-01 2.282187500000D+02 5.466349423395D-01-5.947390589833D-09
     5.021637550229D-10 2.580000000000D+02 2.285000000000D+03 0.000000000000D+00
     3.120000000000D+00 0.000000000000D+00 1.862645149231D-09 0.000000000000D+00
     3.901000000000D+05
E26 2023 10 26 12 10 00 2.624455373734D-04 1.099920154957D-11 0.000000000000D+00
     9.000000000000D+00-3.518750000000D+01 2.240093222028D-09-1.485366795649D+00
    -1.495704054832D-06 3.006142796949D-04 1.410208642483D-05 5.440611841202D+03
     3.894000000000D+05 1.490116119385D-08-3.880040260622D-01-1.490116119385D-08
     9.935358557049D-01 5.375000000000D+01-2.392469298007D+00-5.149500211639D-09
     8.036048909643D-11 2.580000000000D+02 2.285000000000D+03 0.000000000000D+00
     3.120000000000D+00 0.000000000000D+00-4.889443516731D-09 0.000000000000D+00
     3.901000000000D+05
E33 2023 10 26 12 10 00 1.042091753334D-06 8.384404281969D-13 0.000000000000D+00
     9.000000000000D+00-1.534375000000D+01 2.215092331781D-09-1.953206939709D+00
    -8.028000593185D-07 3.264963161200D-04 1.459009945393D-05 5.440608709335D+03
     3.894000000000D+05 7.450580596924D-09-3.890059581739D-01-1.117587089539D-08
     1.000238014465D+00 4.325000000000D+01-2.657729163419D+00-5.102355390725D-09
     6.035965477436D-11 2.580000000000D+02 2.285000000000D+03 0.000000000000D+00
     3.120000000000D+00 0.000000000000D+00-3.725290298462D-09 0.000000000000D+00
     3.901000000000D+05
E02 2023 10 26 12 10 00 7.315527182072D-05 3.055333763768D-12 0.000000000000D+00
     9.000000000000D+00 1.478750000000D+02 3.241563684142D-09 5.958394414587D-01
     6.988644599915D-06 3.363785799593D-04 5.250796675682D-06 5.440624835968D+03
     3.894000000000D+05-3.911554813385D-08-2.476291171421D+00-1.117587089539D-08
     9.685445145553D-01 2.293750000000D+02 8.405045143867D-03-5.914532078287D-09
     5.393081536909D-10 2.580000000000D+02 2.285000000000D+03 0.000000000000D+00
     3.120000000000D+00 0.000000000000D+00-9.313225746155D-10 0.000000000000D+00
     3.901000000000D+05
E07 2023 10 26 12 10 00-8.437951328233D-05-2.074784788419D-12 0.000000000000D+00
     9.000000000000D+00-1.137812500000D+02 3.773728440848D-09 3.939125122658D-01
    -5.198642611504D-06 1.256196992472D-04 3.971159458160D-06 5.440607456207D+03
     3.894000000000D+05 6.519258022308D-08 1.705619951243D+00-1.676380634308D-08
     9.591646554122D-01 2.532500000000D+02 7.138478905157D-01-6.099539784601D-09
    -4.857345081710D-10 2.580000000000D+02 2.285000000000D+03 0.000000000000D+00
     3.120000000000D+00 0.000000000000D+00 5.355104804039D-09 0.000000000000D+00
     3.901000000000D+05
E03 2023 10 26 12 10 00-6.833876250312D-05-3.311129148642D-12 0.000000000000D+00
     9.000000000000D+00-1.190625000000D+02 3.731583930744D-09 1.521610550101D+00
    -5.656853318214D-06 3.289177548140D-04 4.429370164871D-06 5.440603240967D+03
     3.894000000000D+05 1.676380634308D-08 1.705565407805D+00 1.676380634308D-08
     9.591239146066D-01 2.434687500000D+02 1.144079756451D+00-6.084896317499D-09
    -6.082396253326D-10 2.580000000000D+02 2.285000000000D+03 0.000000000000D+00
     3.120000000000D+00 0.000000000000D+00 3.492459654808D-09 0.000000000000D+00
     3.901000000000D+05
